{"fetched_at":"2026-07-22T07:09:55.588Z","source":"https://celestrak.org/NORAD/elements/gp.php?NAME=NUSAT&FORMAT=JSON","constellation":"satellogic","records":[{"OBJECT_NAME":"NUSAT-47","OBJECT_ID":"2025-276CF","EPOCH":"2026-07-21T04:31:43.166784","CLASSIFICATION_TYPE":"U","MEAN_MOTION":15.20624955,"ECCENTRICITY":0.00010874,"INCLINATION":97.417,"RA_OF_ASC_NODE":275.2601,"ARG_OF_PERICENTER":176.975,"MEAN_ANOMALY":183.1493,"EPHEMERIS_TYPE":0,"NORAD_CAT_ID":66743,"ELEMENT_SET_NO":999,"REV_AT_EPOCH":3559,"BSTAR":0.00019157147,"MEAN_MOTION_DOT":0.00004133,"MEAN_MOTION_DDOT":0},{"OBJECT_NAME":"NUSAT-53 (JANE GOODALL)","OBJECT_ID":"2026-067S","EPOCH":"2026-07-21T14:12:38.326464","CLASSIFICATION_TYPE":"U","MEAN_MOTION":15.18893276,"ECCENTRICITY":0.00003262,"INCLINATION":97.4578,"RA_OF_ASC_NODE":160.6285,"ARG_OF_PERICENTER":226.3754,"MEAN_ANOMALY":133.7454,"EPHEMERIS_TYPE":0,"NORAD_CAT_ID":68432,"ELEMENT_SET_NO":999,"REV_AT_EPOCH":1716,"BSTAR":0.00021890478,"MEAN_MOTION_DOT":0.00004499,"MEAN_MOTION_DDOT":0},{"OBJECT_NAME":"NUSAT-54 (BRANCA MARQUES)","OBJECT_ID":"2026-067AC","EPOCH":"2026-07-21T07:46:04.056384","CLASSIFICATION_TYPE":"U","MEAN_MOTION":15.1803357,"ECCENTRICITY":0.00031175,"INCLINATION":97.4559,"RA_OF_ASC_NODE":160.197,"ARG_OF_PERICENTER":336.3589,"MEAN_ANOMALY":23.7502,"EPHEMERIS_TYPE":0,"NORAD_CAT_ID":68442,"ELEMENT_SET_NO":999,"REV_AT_EPOCH":1711,"BSTAR":0.00018512091,"MEAN_MOTION_DOT":0.000037,"MEAN_MOTION_DDOT":0}]}
