{"epoch":1784710044,"count":18256,"objects":[{"id":"66743","name":"NUSAT-47","type":"PAYLOAD","l1":"1 66743U 25276CF  26202.18869406  .00004133  00000-0  19157-3 0  9999","l2":"2 66743  97.4170 275.2601 0001087 176.9750 183.1493 15.20624955 35590"},{"id":"68432","name":"NUSAT-53 (JANE GOODALL)","type":"PAYLOAD","l1":"1 68432U 26067S   26202.59211026  .00004499  00000-0  21890-3 0  9991","l2":"2 68432  97.4578 160.6285 0000326 226.3754 133.7454 15.18893276 17165"},{"id":"68442","name":"NUSAT-54(BRANCA MARQUES)","type":"PAYLOAD","l1":"1 68442U 26067AC  26202.32365806  .00003700  00000-0  18512-3 0  9990","l2":"2 68442  97.4559 160.1970 0003118 336.3589  23.7502 15.18033570 17111"}]}